{
    "type": "FeatureCollection",
    "features": [
        {
            "type": "Feature",
            "properties": {
                "NAME": "Adams"
            },
            "geometry": {
                "type": "Polygon",
                "coordinates": [
                    [
                        [
                            -118.9739,
                            47.2608
                        ],
                        [
                            -117.9604,
                            47.2605
                        ],
                        [
                            -117.9604,
                            46.7742
                        ],
                        [
                            -118.2106,
                            46.7384
                        ],
                        [
                            -118.9737,
                            46.7392
                        ],
                        [
                            -118.9739,
                            47.2608
                        ]
                    ]
                ]
            }
        },
        {
            "type": "Feature",
            "properties": {
                "NAME": "Asotin"
            },
            "geometry": {
                "type": "Polygon",
                "coordinates": [
                    [
                        [
                            -117.4797,
                            46.3907
                        ],
                        [
                            -117.0391,
                            46.4253
                        ],
                        [
                            -117.0391,
                            46.0004
                        ],
                        [
                            -117.4232,
                            45.9990
                        ],
                        [
                            -117.4797,
                            46.3907
                        ]
                    ]
                ]
            }
        },
        {
            "type": "Feature",
            "properties": {
                "NAME": "Benton"
            },
            "geometry": {
                "type": "Polygon",
                "coordinates": [
                    [
                        [
                            -119.8753,
                            46.6284
                        ],
                        [
                            -119.2651,
                            46.6284
                        ],
                        [
                            -119.2651,
                            45.9396
                        ],
                        [
                            -119.4322,
                            45.9176
                        ],
                        [
                            -119.8753,
                            46.0385
                        ],
                        [
                            -119.8753,
                            46.6284
                        ]
                    ]
                ]
            }
        },
        {
            "type": "Feature",
            "properties": {
                "NAME": "Chelan"
            },
            "geometry": {
                "type": "Polygon",
                "coordinates": [
                    [
                        [
                            -121.1105,
                            48.3092
                        ],
                        [
                            -119.8696,
                            48.0503
                        ],
                        [
                            -119.8696,
                            47.4327
                        ],
                        [
                            -120.6520,
                            47.3671
                        ],
                        [
                            -121.1105,
                            47.5973
                        ],
                        [
                            -121.1105,
                            48.3092
                        ]
                    ]
                ]
            }
        },
        {
            "type": "Feature",
            "properties": {
                "NAME": "Clallam"
            },
            "geometry": {
                "type": "Polygon",
                "coordinates": [
                    [
                        [
                            -124.7334,
                            48.3858
                        ],
                        [
                            -123.5058,
                            48.2291
                        ],
                        [
                            -123.5058,
                            47.8645
                        ],
                        [
                            -124.3494,
                            47.9605
                        ],
                        [
                            -124.7334,
                            48.1644
                        ],
                        [
                            -124.7334,
                            48.3858
                        ]
                    ]
                ]
            }
        },
        {
            "type": "Feature",
            "properties": {
                "NAME": "Clark"
            },
            "geometry": {
                "type": "Polygon",
                "coordinates": [
                    [
                        [
                            -122.7918,
                            46.1469
                        ],
                        [
                            -122.2415,
                            46.0535
                        ],
                        [
                            -122.2415,
                            45.5437
                        ],
                        [
                            -122.7918,
                            45.5831
                        ],
                        [
                            -122.7918,
                            46.1469
                        ]
                    ]
                ]
            }
        },
        {
            "type": "Feature",
            "properties": {
                "NAME": "Columbia"
            },
            "geometry": {
                "type": "Polygon",
                "coordinates": [
                    [
                        [
                            -118.2282,
                            46.5935
                        ],
                        [
                            -117.4310,
                            46.3823
                        ],
                        [
                            -117.4310,
                            46.0003
                        ],
                        [
                            -118.2282,
                            46.0003
                        ],
                        [
                            -118.2282,
                            46.5935
                        ]
                    ]
                ]
            }
        },
        {
            "type": "Feature",
            "properties": {
                "NAME": "Cowlitz"
            },
            "geometry": {
                "type": "Polygon",
                "coordinates": [
                    [
                        [
                            -123.3632,
                            46.3844
                        ],
                        [
                            -122.7280,
                            46.3856
                        ],
                        [
                            -122.7280,
                            45.9982
                        ],
                        [
                            -123.3632,
                            45.9269
                        ],
                        [
                            -123.3632,
                            46.3844
                        ]
                    ]
                ]
            }
        },
        {
            "type": "Feature",
            "properties": {
                "NAME": "Douglas"
            },
            "geometry": {
                "type": "Polygon",
                "coordinates": [
                    [
                        [
                            -120.6520,
                            47.8724
                        ],
                        [
                            -119.5176,
                            47.7617
                        ],
                        [
                            -119.5176,
                            47.3101
                        ],
                        [
                            -120.6520,
                            47.3671
                        ],
                        [
                            -120.6520,
                            47.8724
                        ]
                    ]
                ]
            }
        },
        {
            "type": "Feature",
            "properties": {
                "NAME": "Ferry"
            },
            "geometry": {
                "type": "Polygon",
                "coordinates": [
                    [
                        [
                            -118.8519,
                            48.9992
                        ],
                        [
                            -118.1965,
                            48.9992
                        ],
                        [
                            -118.1965,
                            47.9464
                        ],
                        [
                            -118.8519,
                            47.9464
                        ],
                        [
                            -118.8519,
                            48.9992
                        ]
                    ]
                ]
            }
        },
        {
            "type": "Feature",
            "properties": {
                "NAME": "Franklin"
            },
            "geometry": {
                "type": "Polygon",
                "coordinates": [
                    [
                        [
                            -119.2651,
                            46.7389
                        ],
                        [
                            -118.2106,
                            46.7389
                        ],
                        [
                            -118.2106,
                            46.2579
                        ],
                        [
                            -119.4322,
                            46.0625
                        ],
                        [
                            -119.2651,
                            46.7389
                        ]
                    ]
                ]
            }
        },
        {
            "type": "Feature",
            "properties": {
                "NAME": "Garfield"
            },
            "geometry": {
                "type": "Polygon",
                "coordinates": [
                    [
                        [
                            -117.4310,
                            46.5422
                        ],
                        [
                            -117.0391,
                            46.4253
                        ],
                        [
                            -117.0391,
                            46.0403
                        ],
                        [
                            -117.4310,
                            46.0003
                        ],
                        [
                            -117.4310,
                            46.5422
                        ]
                    ]
                ]
            }
        },
        {
            "type": "Feature",
            "properties": {
                "NAME": "Grant"
            },
            "geometry": {
                "type": "Polygon",
                "coordinates": [
                    [
                        [
                            -119.8696,
                            47.4327
                        ],
                        [
                            -118.9737,
                            47.2608
                        ],
                        [
                            -118.9737,
                            46.7392
                        ],
                        [
                            -119.8696,
                            46.7389
                        ],
                        [
                            -119.8696,
                            47.4327
                        ]
                    ]
                ]
            }
        },
        {
            "type": "Feature",
            "properties": {
                "NAME": "Grays Harbor"
            },
            "geometry": {
                "type": "Polygon",
                "coordinates": [
                    [
                        [
                            -124.3494,
                            47.4055
                        ],
                        [
                            -123.1580,
                            47.4055
                        ],
                        [
                            -123.1580,
                            46.7920
                        ],
                        [
                            -124.0951,
                            46.7920
                        ],
                        [
                            -124.3494,
                            47.0838
                        ],
                        [
                            -124.3494,
                            47.4055
                        ]
                    ]
                ]
            }
        },
        {
            "type": "Feature",
            "properties": {
                "NAME": "Island"
            },
            "geometry": {
                "type": "Polygon",
                "coordinates": [
                    [
                        [
                            -122.8001,
                            48.4219
                        ],
                        [
                            -122.3432,
                            48.2836
                        ],
                        [
                            -122.3432,
                            48.0137
                        ],
                        [
                            -122.8001,
                            48.0137
                        ],
                        [
                            -122.8001,
                            48.4219
                        ]
                    ]
                ]
            }
        },
        {
            "type": "Feature",
            "properties": {
                "NAME": "Jefferson"
            },
            "geometry": {
                "type": "Polygon",
                "coordinates": [
                    [
                        [
                            -124.6405,
                            48.0596
                        ],
                        [
                            -122.9517,
                            47.8645
                        ],
                        [
                            -122.9517,
                            47.5044
                        ],
                        [
                            -124.3494,
                            47.5044
                        ],
                        [
                            -124.6405,
                            47.8023
                        ],
                        [
                            -124.6405,
                            48.0596
                        ]
                    ]
                ]
            }
        },
        {
            "type": "Feature",
            "properties": {
                "NAME": "King"
            },
            "geometry": {
                "type": "Polygon",
                "coordinates": [
                    [
                        [
                            -122.4366,
                            47.7776
                        ],
                        [
                            -121.0642,
                            47.7127
                        ],
                        [
                            -121.0642,
                            47.1283
                        ],
                        [
                            -122.3282,
                            47.2558
                        ],
                        [
                            -122.4366,
                            47.7776
                        ]
                    ]
                ]
            }
        },
        {
            "type": "Feature",
            "properties": {
                "NAME": "Kitsap"
            },
            "geometry": {
                "type": "Polygon",
                "coordinates": [
                    [
                        [
                            -122.9517,
                            47.8645
                        ],
                        [
                            -122.3432,
                            47.7776
                        ],
                        [
                            -122.3432,
                            47.2558
                        ],
                        [
                            -122.9517,
                            47.2558
                        ],
                        [
                            -122.9517,
                            47.8645
                        ]
                    ]
                ]
            }
        },
        {
            "type": "Feature",
            "properties": {
                "NAME": "Kittitas"
            },
            "geometry": {
                "type": "Polygon",
                "coordinates": [
                    [
                        [
                            -121.4573,
                            47.3671
                        ],
                        [
                            -119.8696,
                            47.4327
                        ],
                        [
                            -119.8696,
                            46.7389
                        ],
                        [
                            -121.0322,
                            46.7389
                        ],
                        [
                            -121.4573,
                            47.0869
                        ],
                        [
                            -121.4573,
                            47.3671
                        ]
                    ]
                ]
            }
        },
        {
            "type": "Feature",
            "properties": {
                "NAME": "Klickitat"
            },
            "geometry": {
                "type": "Polygon",
                "coordinates": [
                    [
                        [
                            -121.5241,
                            46.0444
                        ],
                        [
                            -120.2489,
                            45.8621
                        ],
                        [
                            -120.2489,
                            45.5437
                        ],
                        [
                            -121.5241,
                            45.7137
                        ],
                        [
                            -121.5241,
                            46.0444
                        ]
                    ]
                ]
            }
        },
        {
            "type": "Feature",
            "properties": {
                "NAME": "Lewis"
            },
            "geometry": {
                "type": "Polygon",
                "coordinates": [
                    [
                        [
                            -123.1580,
                            46.7920
                        ],
                        [
                            -121.8079,
                            46.7289
                        ],
                        [
                            -121.8079,
                            46.0535
                        ],
                        [
                            -122.7280,
                            46.0535
                        ],
                        [
                            -123.1580,
                            46.3856
                        ],
                        [
                            -123.1580,
                            46.7920
                        ]
                    ]
                ]
            }
        },
        {
            "type": "Feature",
            "properties": {
                "NAME": "Lincoln"
            },
            "geometry": {
                "type": "Polygon",
                "coordinates": [
                    [
                        [
                            -118.4052,
                            47.9516
                        ],
                        [
                            -117.4310,
                            47.9516
                        ],
                        [
                            -117.4310,
                            47.2605
                        ],
                        [
                            -118.4052,
                            47.2605
                        ],
                        [
                            -118.4052,
                            47.9516
                        ]
                    ]
                ]
            }
        },
        {
            "type": "Feature",
            "properties": {
                "NAME": "Mason"
            },
            "geometry": {
                "type": "Polygon",
                "coordinates": [
                    [
                        [
                            -123.5058,
                            47.5044
                        ],
                        [
                            -122.8001,
                            47.4055
                        ],
                        [
                            -122.8001,
                            47.0407
                        ],
                        [
                            -123.5058,
                            47.0407
                        ],
                        [
                            -123.5058,
                            47.5044
                        ]
                    ]
                ]
            }
        },
        {
            "type": "Feature",
            "properties": {
                "NAME": "Okanogan"
            },
            "geometry": {
                "type": "Polygon",
                "coordinates": [
                    [
                        [
                            -120.6520,
                            48.9992
                        ],
                        [
                            -118.8519,
                            48.9992
                        ],
                        [
                            -118.8519,
                            47.9464
                        ],
                        [
                            -120.6520,
                            47.8724
                        ],
                        [
                            -120.6520,
                            48.9992
                        ]
                    ]
                ]
            }
        },
        {
            "type": "Feature",
            "properties": {
                "NAME": "Pacific"
            },
            "geometry": {
                "type": "Polygon",
                "coordinates": [
                    [
                        [
                            -124.0951,
                            46.7920
                        ],
                        [
                            -123.3632,
                            46.7920
                        ],
                        [
                            -123.3632,
                            46.2384
                        ],
                        [
                            -124.0951,
                            46.2384
                        ],
                        [
                            -124.0951,
                            46.7920
                        ]
                    ]
                ]
            }
        },
        {
            "type": "Feature",
            "properties": {
                "NAME": "Pend Oreille"
            },
            "geometry": {
                "type": "Polygon",
                "coordinates": [
                    [
                        [
                            -117.4310,
                            48.9992
                        ],
                        [
                            -117.0391,
                            48.9992
                        ],
                        [
                            -117.0391,
                            48.0453
                        ],
                        [
                            -117.4310,
                            48.0453
                        ],
                        [
                            -117.4310,
                            48.9992
                        ]
                    ]
                ]
            }
        },
        {
            "type": "Feature",
            "properties": {
                "NAME": "Pierce"
            },
            "geometry": {
                "type": "Polygon",
                "coordinates": [
                    [
                        [
                            -122.6917,
                            47.4055
                        ],
                        [
                            -121.4573,
                            47.3671
                        ],
                        [
                            -121.4573,
                            46.7289
                        ],
                        [
                            -122.3282,
                            46.7579
                        ],
                        [
                            -122.6917,
                            47.0838
                        ],
                        [
                            -122.6917,
                            47.4055
                        ]
                    ]
                ]
            }
        },
        {
            "type": "Feature",
            "properties": {
                "NAME": "San Juan"
            },
            "geometry": {
                "type": "Polygon",
                "coordinates": [
                    [
                        [
                            -123.2427,
                            48.7695
                        ],
                        [
                            -122.4366,
                            48.5634
                        ],
                        [
                            -122.4366,
                            48.2836
                        ],
                        [
                            -123.2427,
                            48.4676
                        ],
                        [
                            -123.2427,
                            48.7695
                        ]
                    ]
                ]
            }
        },
        {
            "type": "Feature",
            "properties": {
                "NAME": "Skagit"
            },
            "geometry": {
                "type": "Polygon",
                "coordinates": [
                    [
                        [
                            -122.7095,
                            48.7695
                        ],
                        [
                            -121.0109,
                            48.5483
                        ],
                        [
                            -121.0109,
                            48.2836
                        ],
                        [
                            -122.3432,
                            48.2299
                        ],
                        [
                            -122.7095,
                            48.5129
                        ],
                        [
                            -122.7095,
                            48.7695
                        ]
                    ]
                ]
            }
        },
        {
            "type": "Feature",
            "properties": {
                "NAME": "Skamania"
            },
            "geometry": {
                "type": "Polygon",
                "coordinates": [
                    [
                        [
                            -122.2415,
                            46.0535
                        ],
                        [
                            -121.5241,
                            46.0444
                        ],
                        [
                            -121.5241,
                            45.5437
                        ],
                        [
                            -122.2415,
                            45.5437
                        ],
                        [
                            -122.2415,
                            46.0535
                        ]
                    ]
                ]
            }
        },
        {
            "type": "Feature",
            "properties": {
                "NAME": "Snohomish"
            },
            "geometry": {
                "type": "Polygon",
                "coordinates": [
                    [
                        [
                            -122.4366,
                            48.2299
                        ],
                        [
                            -121.0642,
                            48.2836
                        ],
                        [
                            -121.0642,
                            47.7127
                        ],
                        [
                            -122.4366,
                            47.7776
                        ],
                        [
                            -122.4366,
                            48.2299
                        ]
                    ]
                ]
            }
        },
        {
            "type": "Feature",
            "properties": {
                "NAME": "Spokane"
            },
            "geometry": {
                "type": "Polygon",
                "coordinates": [
                    [
                        [
                            -117.9604,
                            47.9516
                        ],
                        [
                            -117.0391,
                            47.9516
                        ],
                        [
                            -117.0391,
                            47.2605
                        ],
                        [
                            -117.9604,
                            47.2605
                        ],
                        [
                            -117.9604,
                            47.9516
                        ]
                    ]
                ]
            }
        },
        {
            "type": "Feature",
            "properties": {
                "NAME": "Stevens"
            },
            "geometry": {
                "type": "Polygon",
                "coordinates": [
                    [
                        [
                            -118.1965,
                            48.9992
                        ],
                        [
                            -117.4310,
                            48.9992
                        ],
                        [
                            -117.4310,
                            47.9464
                        ],
                        [
                            -118.1965,
                            47.9464
                        ],
                        [
                            -118.1965,
                            48.9992
                        ]
                    ]
                ]
            }
        },
        {
            "type": "Feature",
            "properties": {
                "NAME": "Thurston"
            },
            "geometry": {
                "type": "Polygon",
                "coordinates": [
                    [
                        [
                            -123.1580,
                            47.0407
                        ],
                        [
                            -122.3282,
                            47.0579
                        ],
                        [
                            -122.3282,
                            46.5410
                        ],
                        [
                            -123.1580,
                            46.5410
                        ],
                        [
                            -123.1580,
                            47.0407
                        ]
                    ]
                ]
            }
        },
        {
            "type": "Feature",
            "properties": {
                "NAME": "Wahkiakum"
            },
            "geometry": {
                "type": "Polygon",
                "coordinates": [
                    [
                        [
                            -123.7283,
                            46.3844
                        ],
                        [
                            -123.3632,
                            46.3844
                        ],
                        [
                            -123.3632,
                            46.0547
                        ],
                        [
                            -123.7283,
                            46.0547
                        ],
                        [
                            -123.7283,
                            46.3844
                        ]
                    ]
                ]
            }
        },
        {
            "type": "Feature",
            "properties": {
                "NAME": "Walla Walla"
            },
            "geometry": {
                "type": "Polygon",
                "coordinates": [
                    [
                        [
                            -118.9737,
                            46.4722
                        ],
                        [
                            -117.9604,
                            46.3823
                        ],
                        [
                            -117.9604,
                            45.9990
                        ],
                        [
                            -118.9737,
                            45.9990
                        ],
                        [
                            -118.9737,
                            46.4722
                        ]
                    ]
                ]
            }
        },
        {
            "type": "Feature",
            "properties": {
                "NAME": "Whatcom"
            },
            "geometry": {
                "type": "Polygon",
                "coordinates": [
                    [
                        [
                            -122.7095,
                            48.9992
                        ],
                        [
                            -121.0109,
                            48.9992
                        ],
                        [
                            -121.0109,
                            48.5483
                        ],
                        [
                            -122.7095,
                            48.7695
                        ],
                        [
                            -122.7095,
                            48.9992
                        ]
                    ]
                ]
            }
        },
        {
            "type": "Feature",
            "properties": {
                "NAME": "Whitman"
            },
            "geometry": {
                "type": "Polygon",
                "coordinates": [
                    [
                        [
                            -117.9604,
                            47.2605
                        ],
                        [
                            -117.0391,
                            47.2605
                        ],
                        [
                            -117.0391,
                            46.4253
                        ],
                        [
                            -117.9604,
                            46.3823
                        ],
                        [
                            -117.9604,
                            47.2605
                        ]
                    ]
                ]
            }
        },
        {
            "type": "Feature",
            "properties": {
                "NAME": "Yakima"
            },
            "geometry": {
                "type": "Polygon",
                "coordinates": [
                    [
                        [
                            -121.4573,
                            46.7389
                        ],
                        [
                            -119.8696,
                            46.7389
                        ],
                        [
                            -119.8696,
                            45.9176
                        ],
                        [
                            -120.8505,
                            46.0385
                        ],
                        [
                            -121.4573,
                            46.3882
                        ],
                        [
                            -121.4573,
                            46.7389
                        ]
                    ]
                ]
            }
        }
    ]
}